{"type": "FeatureCollection", "features": [ {"type": "Feature", "properties": {"norad_id": 37216, "name": "COSMO-SKYMED 4", "group": "resource", "lat": 35.56281980499917, "lon": -7.985849226261773, "alt_km": 619.6874695287297, "timestamp": "2025-12-10T23:33:12.483607+00:00", "meta": {"OBJECT_NAME": "COSMO-SKYMED 4", "OBJECT_ID": "2010-060A", "EPOCH": "2025-12-10T14:48:18.241920", "MEAN_MOTION": 14.82166292, "ECCENTRICITY": 0.00014191, "INCLINATION": 97.8806, "RA_OF_ASC_NODE": 165.9721, "ARG_OF_PERICENTER": 79.8811, "MEAN_ANOMALY": 280.2562, "EPHEMERIS_TYPE": 0, "CLASSIFICATION_TYPE": "U", "NORAD_CAT_ID": 37216, "ELEMENT_SET_NO": 999, "REV_AT_EPOCH": 81663, "BSTAR": 0.00016388594, "MEAN_MOTION_DOT": 1.253e-05, "MEAN_MOTION_DDOT": 0}, "tle": {"line1": "1 37216U 10060A   25344.61687780  .00001253  00000+0  16389-3 0  9997", "line2": "2 37216  97.8806 165.9721 0001419  79.8811 280.2562 14.82166292816639"}}, "geometry": {"type": "Point", "coordinates": [-7.985849226261773, 35.56281980499917]}}, {"type": "Feature", "properties": {"norad_id": 37387, "name": "RESOURCESAT-2", "group": "resource", "lat": 47.47905812243651, "lon": -121.74716528230786, "alt_km": 815.2586751344934, "timestamp": "2025-12-10T23:33:12.483618+00:00", "meta": {"OBJECT_NAME": "RESOURCESAT-2", "OBJECT_ID": "2011-015A", "EPOCH": "2025-12-10T14:29:26.504736", "MEAN_MOTION": 14.21595911, "ECCENTRICITY": 0.00065338, "INCLINATION": 98.788, "RA_OF_ASC_NODE": 48.1651, "ARG_OF_PERICENTER": 48.1494, "MEAN_ANOMALY": 312.024, "EPHEMERIS_TYPE": 0, "CLASSIFICATION_TYPE": "U", "NORAD_CAT_ID": 37387, "ELEMENT_SET_NO": 999, "REV_AT_EPOCH": 75938, "BSTAR": 0.00012673428, "MEAN_MOTION_DOT": 2.33e-06, "MEAN_MOTION_DDOT": 0}, "tle": {"line1": "1 37387U 11015A   25344.60377899  .00000233  00000+0  12673-3 0  9992", "line2": "2 37387  98.7880  48.1651 0006533  48.1494 312.0240 14.21595911759384"}}, "geometry": {"type": "Point", "coordinates": [-121.74716528230786, 47.47905812243651]}}, {"type": "Feature", "properties": {"norad_id": 37781, "name": "HAIYANG-2A", "group": "resource", "lat": 80.65315777338573, "lon": -102.4929212962089, "alt_km": 959.3449287146977, "timestamp": "2025-12-10T23:33:12.483628+00:00", "meta": {"OBJECT_NAME": "HAIYANG-2A", "OBJECT_ID": "2011-043A", "EPOCH": "2025-12-10T14:24:44.449344", "MEAN_MOTION": 13.78835137, "ECCENTRICITY": 0.00016672, "INCLINATION": 99.3378, "RA_OF_ASC_NODE": 345.5675, "ARG_OF_PERICENTER": 84.4566, "MEAN_ANOMALY": 275.6776, "EPHEMERIS_TYPE": 0, "CLASSIFICATION_TYPE": "U", "NORAD_CAT_ID": 37781, "ELEMENT_SET_NO": 999, "REV_AT_EPOCH": 72069, "BSTAR": 0.00015776732, "MEAN_MOTION_DOT": 1.17e-06, "MEAN_MOTION_DDOT": 0}, "tle": {"line1": "1 37781U 11043A   25344.60051446  .00000117  00000+0  15777-3 0  9997", "line2": "2 37781  99.3378 345.5675 0001667  84.4566 275.6776 13.78835137720695"}}, "geometry": {"type": "Point", "coordinates": [-102.4929212962089, 80.65315777338573]}}, {"type": "Feature", "properties": {"norad_id": 37791, "name": "RASAT", "group": "resource", "lat": 3.1320184958469115, "lon": 73.82062931662988, "alt_km": 664.2191713946386, "timestamp": "2025-12-10T23:33:12.483637+00:00", "meta": {"OBJECT_NAME": "RASAT", "OBJECT_ID": "2011-044D", "EPOCH": "2025-12-10T12:20:37.272192", "MEAN_MOTION": 14.6790589, "ECCENTRICITY": 0.00219418, "INCLINATION": 98.0651, "RA_OF_ASC_NODE": 73.8051, "ARG_OF_PERICENTER": 71.5635, "MEAN_ANOMALY": 345.1941, "EPHEMERIS_TYPE": 0, "CLASSIFICATION_TYPE": "U", "NORAD_CAT_ID": 37791, "ELEMENT_SET_NO": 999, "REV_AT_EPOCH": 76550, "BSTAR": 0.00024657815, "MEAN_MOTION_DOT": 1.366e-05, "MEAN_MOTION_DDOT": 0}, "tle": {"line1": "1 37791U 11044D   25344.51432028  .00001366  00000+0  24658-3 0  9993", "line2": "2 37791  98.0651  73.8051 0021941  71.5635 345.1941 14.67905890765505"}}, "geometry": {"type": "Point", "coordinates": [73.82062931662988, 3.1320184958469115]}}, {"type": "Feature", "properties": {"norad_id": 37841, "name": "SRMSAT", "group": "resource", "lat": 17.159835997024672, "lon": -119.646569901954, "alt_km": 857.8277532014126, "timestamp": "2025-12-10T23:33:12.483646+00:00", "meta": {"OBJECT_NAME": "SRMSAT", "OBJECT_ID": "2011-058D", "EPOCH": "2025-12-10T13:08:40.690752", "MEAN_MOTION": 14.11510382, "ECCENTRICITY": 0.00117109, "INCLINATION": 19.9705, "RA_OF_ASC_NODE": 121.2177, "ARG_OF_PERICENTER": 289.1753, "MEAN_ANOMALY": 142.4183, "EPHEMERIS_TYPE": 0, "CLASSIFICATION_TYPE": "U", "NORAD_CAT_ID": 37841, "ELEMENT_SET_NO": 999, "REV_AT_EPOCH": 73113, "BSTAR": 0.00014257877, "MEAN_MOTION_DOT": 5.27e-06, "MEAN_MOTION_DDOT": 0}, "tle": {"line1": "1 37841U 11058D   25344.54769318  .00000527  00000+0  14258-3 0  9995", "line2": "2 37841  19.9705 121.2177 0011710 289.1753 142.4183 14.11510382731136"}}, "geometry": {"type": "Point", "coordinates": [-119.646569901954, 17.159835997024672]}}, {"type": "Feature", "properties": {"norad_id": 38012, "name": "PLEIADES 1A", "group": "resource", "lat": -37.37762103355899, "lon": -128.53361783905015, "alt_km": 705.0077238894455, "timestamp": "2025-12-10T23:33:12.483655+00:00", "meta": {"OBJECT_NAME": "PLEIADES 1A", "OBJECT_ID": "2011-076F", "EPOCH": "2025-12-10T14:56:22.604640", "MEAN_MOTION": 14.5855918, "ECCENTRICITY": 0.00013479, "INCLINATION": 98.1822, "RA_OF_ASC_NODE": 57.4235, "ARG_OF_PERICENTER": 72.0145, "MEAN_ANOMALY": 62.25, "EPHEMERIS_TYPE": 0, "CLASSIFICATION_TYPE": "U", "NORAD_CAT_ID": 38012, "ELEMENT_SET_NO": 999, "REV_AT_EPOCH": 74450, "BSTAR": 0.00020794222, "MEAN_MOTION_DOT": 9.21e-06, "MEAN_MOTION_DDOT": 0}, "tle": {"line1": "1 38012U 11076F   25344.62248385  .00000921  00000+0  20794-3 0  9991", "line2": "2 38012  98.1822  57.4235 0001347  72.0145  62.2500 14.58559180744507"}}, "geometry": {"type": "Point", "coordinates": [-128.53361783905015, -37.37762103355899]}}, {"type": "Feature", "properties": {"norad_id": 38038, "name": "ZIYUAN 1-02C (ZY 1-02C)", "group": "resource", "lat": -73.25452355878612, "lon": -158.515141490608, "alt_km": 774.3182237059009, "timestamp": "2025-12-10T23:33:12.483665+00:00", "meta": {"OBJECT_NAME": "ZIYUAN 1-02C (ZY 1-02C)", "OBJECT_ID": "2011-079A", "EPOCH": "2025-12-10T14:38:00.984768", "MEAN_MOTION": 14.38008977, "ECCENTRICITY": 0.00070317, "INCLINATION": 98.4331, "RA_OF_ASC_NODE": 50.6624, "ARG_OF_PERICENTER": 143.7642, "MEAN_ANOMALY": 348.6969, "EPHEMERIS_TYPE": 0, "CLASSIFICATION_TYPE": "U", "NORAD_CAT_ID": 38038, "ELEMENT_SET_NO": 999, "REV_AT_EPOCH": 73210, "BSTAR": 0.00032833894, "MEAN_MOTION_DOT": 9.5e-06, "MEAN_MOTION_DDOT": 0}, "tle": {"line1": "1 38038U 11079A   25344.60973362  .00000950  00000+0  32834-3 0  9990", "line2": "2 38038  98.4331  50.6624 0007031 143.7642 348.6969 14.38008977732108"}}, "geometry": {"type": "Point", "coordinates": [-158.515141490608, -73.25452355878612]}}, {"type": "Feature", "properties": {"norad_id": 38046, "name": "ZIYUAN 3-1 (ZY 3-1)", "group": "resource", "lat": -52.737048856418326, "lon": 60.88979500030969, "alt_km": 370.33715266375384, "timestamp": "2025-12-10T23:33:12.483674+00:00", "meta": {"OBJECT_NAME": "ZIYUAN 3-1 (ZY 3-1)", "OBJECT_ID": "2012-001A", "EPOCH": "2025-12-10T16:07:23.249568", "MEAN_MOTION": 15.68140977, "ECCENTRICITY": 0.0001905, "INCLINATION": 97.1753, "RA_OF_ASC_NODE": 51.0411, "ARG_OF_PERICENTER": 2.2419, "MEAN_ANOMALY": 357.8851, "EPHEMERIS_TYPE": 0, "CLASSIFICATION_TYPE": "U", "NORAD_CAT_ID": 38046, "ELEMENT_SET_NO": 999, "REV_AT_EPOCH": 77464, "BSTAR": 0.00086097, "MEAN_MOTION_DOT": 0.00096562, "MEAN_MOTION_DDOT": 0}, "tle": {"line1": "1 38046U 12001A   25344.67179687  .00096562  00000+0  86097-3 0  9994", "line2": "2 38046  97.1753  51.0411 0001905   2.2419 357.8851 15.68140977774643"}}, "geometry": {"type": "Point", "coordinates": [60.88979500030969, -52.737048856418326]}}, {"type": "Feature", "properties": {"norad_id": 38338, "name": "ARIRANG-3 (KOMPSAT-3)", "group": "resource", "lat": 80.15223388881297, "lon": 177.14771691570994, "alt_km": 681.6155000242261, "timestamp": "2025-12-10T23:33:12.483684+00:00", "meta": {"OBJECT_NAME": "ARIRANG-3 (KOMPSAT-3)", "OBJECT_ID": "2012-025B", "EPOCH": "2025-12-10T14:54:18.369216", "MEAN_MOTION": 14.61708382, "ECCENTRICITY": 0.00055078, "INCLINATION": 98.3319, "RA_OF_ASC_NODE": 299.1945, "ARG_OF_PERICENTER": 345.8365, "MEAN_ANOMALY": 14.268, "EPHEMERIS_TYPE": 0, "CLASSIFICATION_TYPE": "U", "NORAD_CAT_ID": 38338, "ELEMENT_SET_NO": 999, "REV_AT_EPOCH": 72379, "BSTAR": 0.0002098684, "MEAN_MOTION_DOT": 9.97e-06, "MEAN_MOTION_DDOT": 0}, "tle": {"line1": "1 38338U 12025B   25344.62104594  .00000997  00000+0  20987-3 0  9997", "line2": "2 38338  98.3319 299.1945 0005507 345.8365  14.2680 14.61708382723799"}}, "geometry": {"type": "Point", "coordinates": [177.14771691570994, 80.15223388881297]}}, {"type": "Feature", "properties": {"norad_id": 38709, "name": "EXACTVIEW-1 (ADS-1B)", "group": "resource", "lat": -34.139814857061396, "lon": 99.47803384928392, "alt_km": 808.5176230506495, "timestamp": "2025-12-10T23:33:12.483693+00:00", "meta": {"OBJECT_NAME": "EXACTVIEW-1 (ADS-1B)", "OBJECT_ID": "2012-039C", "EPOCH": "2025-12-10T13:36:13.296384", "MEAN_MOTION": 14.24906733, "ECCENTRICITY": 0.00107821, "INCLINATION": 98.9635, "RA_OF_ASC_NODE": 92.9113, "ARG_OF_PERICENTER": 0.5572, "MEAN_ANOMALY": 359.5616, "EPHEMERIS_TYPE": 0, "CLASSIFICATION_TYPE": "U", "NORAD_CAT_ID": 38709, "ELEMENT_SET_NO": 999, "REV_AT_EPOCH": 69584, "BSTAR": 0.00014175284, "MEAN_MOTION_DOT": 2.85e-06, "MEAN_MOTION_DDOT": 0}, "tle": {"line1": "1 38709U 12039C   25344.56682056  .00000285  00000+0  14175-3 0  9993", "line2": "2 38709  98.9635  92.9113 0010782   0.5572 359.5616 14.24906733695847"}}, "geometry": {"type": "Point", "coordinates": [99.47803384928392, -34.139814857061396]}}]}